{
  "norad_id": 58443,
  "name": "STARLINK-30971",
  "history": [
    {
      "epoch": "2026-03-28T20:32:30.245568Z",
      "apogee_km": 486.2444882843347,
      "perigee_km": 484.83702252381227,
      "latitude_deg": 1.2959654282913915e-06,
      "longitude_deg": 159.13562319825093,
      "height_km": 485.27594595209285,
      "semi_major_axis_km": 6863.677755404074,
      "eccentricity": 0.00010253,
      "inclination_deg": 42.9995,
      "raan_deg": 293.532,
      "arg_perigee_deg": 273.3581,
      "mean_anomaly_deg": 86.7153,
      "mean_motion_rev_day": 15.2674826
    },
    {
      "epoch": "2026-03-28T23:40:55.295904Z",
      "apogee_km": 486.38578266848344,
      "perigee_km": 484.7137885675065,
      "latitude_deg": -1.2311269747320526e-05,
      "longitude_deg": 111.16466503583503,
      "height_km": 485.25686519945504,
      "semi_major_axis_km": 6863.686785617994,
      "eccentricity": 0.0001218,
      "inclination_deg": 42.9998,
      "raan_deg": 292.7944,
      "arg_perigee_deg": 274.7713,
      "mean_anomaly_deg": 85.2999,
      "mean_motion_rev_day": 15.26745247
    },
    {
      "epoch": "2026-03-30T05:30:51.623424Z",
      "apogee_km": 486.42787409803896,
      "perigee_km": 484.6065348183429,
      "latitude_deg": 1.7533084436023463e-05,
      "longitude_deg": 15.442830063944747,
      "height_km": 485.2178755880737,
      "semi_major_axis_km": 6863.65420445819,
      "eccentricity": 0.00013268,
      "inclination_deg": 42.9988,
      "raan_deg": 285.7824,
      "arg_perigee_deg": 274.7823,
      "mean_anomaly_deg": 85.2877,
      "mean_motion_rev_day": 15.26756118
    }
  ]
}